start=new Date('2021-10-03T00:00:00.000Z').valueOf();
sats=[{"EPHEMERIS_TYPE":"0","MEAN_ANOMALY":"45.9338","NORAD_CAT_ID":"49134","INCLINATION":"69.9999","OBJECT_TYPE":"PAYLOAD","FILE":"3141323","GP_ID":"186054244","OBJECT_ID":"2021-082E","SEMIMAJOR_AXIS":"6737.759","COUNTRY_CODE":"US","LAUNCH_DATE":"2021-09-14","REF_FRAME":"TEME","MEAN_ELEMENT_THEORY":"SGP4","MEAN_MOTION":"15.69746695","PERIOD":"91.735","TIME_SYSTEM":"UTC","REV_AT_EPOCH":"329","ECCENTRICITY":"0.00035280","ARG_OF_PERICENTER":"272.0295","MEAN_MOTION_DOT":"0.00001685","RCS_SIZE":"LARGE","SITE":"AFWTR","MEAN_MOTION_DDOT":"0.0000000000000","APOAPSIS":"362.001","EPOCH":"2021-10-02T22:00:00.999936","PERIAPSIS":"357.247","BSTAR":"0.00001588900000","TLE_LINE2":"2 49134  69.9999  74.0584 0003528 272.0295  45.9338 15.69746695  3291","TLE_LINE1":"1 49134U 21082E   21275.91667824  .00001685  00000-0  15889-4 0  9999","DECAY_DATE":null,"CLASSIFICATION_TYPE":"U","CENTER_NAME":"EARTH","OBJECT_NAME":"STARLINK-3078","RA_OF_ASC_NODE":"74.0584","ELEMENT_SET_NO":"999"},{"BSTAR":"0.00001740900000","PERIAPSIS":"357.205","ELEMENT_SET_NO":"999","RA_OF_ASC_NODE":"74.0635","OBJECT_NAME":"STARLINK-3073","CENTER_NAME":"EARTH","CLASSIFICATION_TYPE":"U","TLE_LINE1":"1 49135U 21082F   21275.91667824  .00001866  00000-0  17409-4 0  9991","TLE_LINE2":"2 49135  69.9999  74.0635 0003591 272.1133  41.5969 15.69746589  3295","DECAY_DATE":null,"MEAN_MOTION_DOT":"0.00001866","ARG_OF_PERICENTER":"272.1133","APOAPSIS":"362.044","EPOCH":"2021-10-02T22:00:00.999936","SITE":"AFWTR","MEAN_MOTION_DDOT":"0.0000000000000","RCS_SIZE":"LARGE","MEAN_MOTION":"15.69746589","MEAN_ELEMENT_THEORY":"SGP4","REV_AT_EPOCH":"329","ECCENTRICITY":"0.00035910","TIME_SYSTEM":"UTC","PERIOD":"91.735","SEMIMAJOR_AXIS":"6737.759","GP_ID":"186054029","OBJECT_ID":"2021-082F","FILE":"3141323","OBJECT_TYPE":"PAYLOAD","INCLINATION":"69.9999","NORAD_CAT_ID":"49135","MEAN_ANOMALY":"41.5969","EPHEMERIS_TYPE":"0","REF_FRAME":"TEME","LAUNCH_DATE":"2021-09-14","COUNTRY_CODE":"US"},{"BSTAR":"-0.00600850000000","PERIAPSIS":"356.486","OBJECT_NAME":"STARLINK-3084","RA_OF_ASC_NODE":"74.0699","ELEMENT_SET_NO":"999","TLE_LINE2":"2 49136  70.0008  74.0699 0003682 274.9070  36.9197 15.69976253  3295","DECAY_DATE":null,"TLE_LINE1":"1 49136U 21082G   21275.91667824 -.00669390  00000-0 -60085-2 0  9992","CLASSIFICATION_TYPE":"U","CENTER_NAME":"EARTH","MEAN_MOTION_DOT":"-0.00669390","ARG_OF_PERICENTER":"274.9070","APOAPSIS":"361.448","EPOCH":"2021-10-02T22:00:00.999936","RCS_SIZE":"LARGE","SITE":"AFWTR","MEAN_MOTION_DDOT":"0.0000000000000","MEAN_ELEMENT_THEORY":"SGP4","MEAN_MOTION":"15.69976253","TIME_SYSTEM":"UTC","ECCENTRICITY":"0.00036820","REV_AT_EPOCH":"329","PERIOD":"91.721","OBJECT_ID":"2021-082G","GP_ID":"186053485","FILE":"3141323","SEMIMAJOR_AXIS":"6737.102","MEAN_ANOMALY":"36.9197","EPHEMERIS_TYPE":"0","NORAD_CAT_ID":"49136","OBJECT_TYPE":"PAYLOAD","INCLINATION":"70.0008","REF_FRAME":"TEME","COUNTRY_CODE":"US","LAUNCH_DATE":"2021-09-14"},{"ARG_OF_PERICENTER":"281.4054","MEAN_MOTION_DOT":"-0.00020317","RCS_SIZE":"LARGE","SITE":"AFWTR","MEAN_MOTION_DDOT":"0.0000000000000","EPOCH":"2021-10-02T22:00:00.999936","APOAPSIS":"361.940","PERIAPSIS":"357.217","BSTAR":"-0.00016873000000","TLE_LINE1":"1 49137U 21082H   21275.91667824 -.00020317  00000-0 -16873-3 0  9990","TLE_LINE2":"2 49137  70.0008  74.0681 0003505 281.4054  34.6510 15.69762611  3291","DECAY_DATE":null,"CENTER_NAME":"EARTH","CLASSIFICATION_TYPE":"U","RA_OF_ASC_NODE":"74.0681","OBJECT_NAME":"STARLINK-3055","ELEMENT_SET_NO":"999","EPHEMERIS_TYPE":"0","MEAN_ANOMALY":"34.6510","OBJECT_TYPE":"PAYLOAD","INCLINATION":"70.0008","NORAD_CAT_ID":"49137","FILE":"3141323","GP_ID":"186053921","OBJECT_ID":"2021-082H","SEMIMAJOR_AXIS":"6737.713","COUNTRY_CODE":"US","LAUNCH_DATE":"2021-09-14","REF_FRAME":"TEME","MEAN_ELEMENT_THEORY":"SGP4","MEAN_MOTION":"15.69762611","PERIOD":"91.734","REV_AT_EPOCH":"329","ECCENTRICITY":"0.00035050","TIME_SYSTEM":"UTC"},{"TLE_LINE1":"1 49138U 21082J   21275.91667824  .00001758  00000-0  16500-4 0  9995","TLE_LINE2":"2 49138  69.9999  74.0534 0003874 273.7894  48.4270 15.69746694  3299","DECAY_DATE":null,"CLASSIFICATION_TYPE":"U","CENTER_NAME":"EARTH","OBJECT_NAME":"STARLINK-3058","RA_OF_ASC_NODE":"74.0534","ELEMENT_SET_NO":"999","PERIAPSIS":"357.014","BSTAR":"0.00001650000000","RCS_SIZE":"LARGE","MEAN_MOTION_DDOT":"0.0000000000000","SITE":"AFWTR","EPOCH":"2021-10-02T22:00:00.999936","APOAPSIS":"362.234","ARG_OF_PERICENTER":"273.7894","MEAN_MOTION_DOT":"0.00001758","PERIOD":"91.735","TIME_SYSTEM":"UTC","REV_AT_EPOCH":"329","ECCENTRICITY":"0.00038740","MEAN_ELEMENT_THEORY":"SGP4","MEAN_MOTION":"15.69746694","COUNTRY_CODE":"US","LAUNCH_DATE":"2021-09-14","REF_FRAME":"TEME","EPHEMERIS_TYPE":"0","MEAN_ANOMALY":"48.4270","NORAD_CAT_ID":"49138","INCLINATION":"69.9999","OBJECT_TYPE":"PAYLOAD","OBJECT_ID":"2021-082J","GP_ID":"186054138","FILE":"3141323","SEMIMAJOR_AXIS":"6737.759"},{"REF_FRAME":"TEME","COUNTRY_CODE":"US","LAUNCH_DATE":"2021-09-14","OBJECT_ID":"2021-082K","GP_ID":"186053702","FILE":"3141323","SEMIMAJOR_AXIS":"6737.759","MEAN_ANOMALY":"48.1643","EPHEMERIS_TYPE":"0","OBJECT_TYPE":"PAYLOAD","INCLINATION":"69.9999","NORAD_CAT_ID":"49139","REV_AT_EPOCH":"329","ECCENTRICITY":"0.00039560","TIME_SYSTEM":"UTC","PERIOD":"91.735","MEAN_ELEMENT_THEORY":"SGP4","MEAN_MOTION":"15.69746682","EPOCH":"2021-10-02T22:00:00.999936","APOAPSIS":"362.289","RCS_SIZE":"LARGE","MEAN_MOTION_DDOT":"0.0000000000000","SITE":"AFWTR","MEAN_MOTION_DOT":"0.00001767","ARG_OF_PERICENTER":"271.9256","RA_OF_ASC_NODE":"74.0560","OBJECT_NAME":"STARLINK-3057","ELEMENT_SET_NO":"999","TLE_LINE2":"2 49139  69.9999  74.0560 0003956 271.9256  48.1643 15.69746682  3290","TLE_LINE1":"1 49139U 21082K   21275.91667824  .00001767  00000-0  16576-4 0  9999","DECAY_DATE":null,"CENTER_NAME":"EARTH","CLASSIFICATION_TYPE":"U","BSTAR":"0.00001657600000","PERIAPSIS":"356.958"},{"TIME_SYSTEM":"UTC","REV_AT_EPOCH":"330","ECCENTRICITY":"0.00032980","PERIOD":"91.733","MEAN_ELEMENT_THEORY":"SGP4","MEAN_MOTION":"15.69778943","REF_FRAME":"TEME","COUNTRY_CODE":"US","LAUNCH_DATE":"2021-09-14","GP_ID":"186053813","FILE":"3141323","OBJECT_ID":"2021-082L","SEMIMAJOR_AXIS":"6737.666","EPHEMERIS_TYPE":"0","MEAN_ANOMALY":"44.6903","NORAD_CAT_ID":"49140","INCLINATION":"70.0007","OBJECT_TYPE":"PAYLOAD","OBJECT_NAME":"STARLINK-3118","RA_OF_ASC_NODE":"74.0550","ELEMENT_SET_NO":"999","TLE_LINE2":"2 49140  70.0007  74.0550 0003298 282.0297  44.6903 15.69778943  3308","TLE_LINE1":"1 49140U 21082L   21275.91667824 -.00057893  00000-0 -48594-3 0  9998","DECAY_DATE":null,"CLASSIFICATION_TYPE":"U","CENTER_NAME":"EARTH","BSTAR":"-0.00048594000000","PERIAPSIS":"357.309","APOAPSIS":"361.754","EPOCH":"2021-10-02T22:00:00.999936","RCS_SIZE":"LARGE","MEAN_MOTION_DDOT":"0.0000000000000","SITE":"AFWTR","MEAN_MOTION_DOT":"-0.00057893","ARG_OF_PERICENTER":"282.0297"},{"ARG_OF_PERICENTER":"275.3712","MEAN_MOTION_DOT":"-0.00483963","SITE":"AFWTR","MEAN_MOTION_DDOT":"0.0000000000000","RCS_SIZE":"LARGE","APOAPSIS":"361.404","EPOCH":"2021-10-02T22:00:00.999936","PERIAPSIS":"356.341","BSTAR":"-0.00424380000000","CENTER_NAME":"EARTH","CLASSIFICATION_TYPE":"U","TLE_LINE1":"1 49141U 21082M   21275.91667824 -.00483963  00000-0 -42438-2 0  9990","TLE_LINE2":"2 49141  69.9997  74.0552 0003758 275.3712  48.9697 15.70009191  3293","DECAY_DATE":null,"ELEMENT_SET_NO":"999","RA_OF_ASC_NODE":"74.0552","OBJECT_NAME":"STARLINK-3093","INCLINATION":"69.9997","OBJECT_TYPE":"PAYLOAD","NORAD_CAT_ID":"49141","EPHEMERIS_TYPE":"0","MEAN_ANOMALY":"48.9697","SEMIMAJOR_AXIS":"6737.008","OBJECT_ID":"2021-082M","GP_ID":"186053594","FILE":"3141323","LAUNCH_DATE":"2021-09-14","COUNTRY_CODE":"US","REF_FRAME":"TEME","MEAN_MOTION":"15.70009191","MEAN_ELEMENT_THEORY":"SGP4","PERIOD":"91.719","REV_AT_EPOCH":"329","ECCENTRICITY":"0.00037580","TIME_SYSTEM":"UTC"},{"DECAY_DATE":null,"TLE_LINE2":"2 49142  70.0017  74.0535 0003478 282.9482  45.7683 15.69703631  3308","TLE_LINE1":"1 49142U 21082N   21275.91667824  .00055090  00000-0  46109-3 0  9995","CENTER_NAME":"EARTH","CLASSIFICATION_TYPE":"U","RA_OF_ASC_NODE":"74.0535","OBJECT_NAME":"STARLINK-3042","ELEMENT_SET_NO":"999","PERIAPSIS":"357.404","BSTAR":"0.00046109000000","RCS_SIZE":"LARGE","MEAN_MOTION_DDOT":"0.0000000000000","SITE":"AFWTR","APOAPSIS":"362.090","EPOCH":"2021-10-02T22:00:00.999936","ARG_OF_PERICENTER":"282.9482","MEAN_MOTION_DOT":"0.00055090","PERIOD":"91.737","REV_AT_EPOCH":"330","ECCENTRICITY":"0.00034780","TIME_SYSTEM":"UTC","MEAN_ELEMENT_THEORY":"SGP4","MEAN_MOTION":"15.69703631","COUNTRY_CODE":"US","LAUNCH_DATE":"2021-09-14","REF_FRAME":"TEME","EPHEMERIS_TYPE":"0","MEAN_ANOMALY":"45.7683","OBJECT_TYPE":"PAYLOAD","INCLINATION":"70.0017","NORAD_CAT_ID":"49142","OBJECT_ID":"2021-082N","GP_ID":"186054245","FILE":"3141323","SEMIMAJOR_AXIS":"6737.882"},{"GP_ID":"186054030","OBJECT_ID":"2021-082P","FILE":"3141323","SEMIMAJOR_AXIS":"6737.758","EPHEMERIS_TYPE":"0","MEAN_ANOMALY":"57.3467","NORAD_CAT_ID":"49143","OBJECT_TYPE":"PAYLOAD","INCLINATION":"69.9999","REF_FRAME":"TEME","COUNTRY_CODE":"US","LAUNCH_DATE":"2021-09-14","MEAN_ELEMENT_THEORY":"SGP4","MEAN_MOTION":"15.69746867","TIME_SYSTEM":"UTC","REV_AT_EPOCH":"330","ECCENTRICITY":"0.00034360","PERIOD":"91.735","MEAN_MOTION_DOT":"0.00001461","ARG_OF_PERICENTER":"273.3760","EPOCH":"2021-10-02T22:00:00.999936","APOAPSIS":"361.938","RCS_SIZE":"LARGE","SITE":"AFWTR","MEAN_MOTION_DDOT":"0.0000000000000","BSTAR":"0.00001401900000","PERIAPSIS":"357.308","OBJECT_NAME":"STARLINK-3109","RA_OF_ASC_NODE":"74.0434","ELEMENT_SET_NO":"999","DECAY_DATE":null,"TLE_LINE2":"2 49143  69.9999  74.0434 0003436 273.3760  57.3467 15.69746867  3307","TLE_LINE1":"1 49143U 21082P   21275.91667824  .00001461  00000-0  14019-4 0  9995","CLASSIFICATION_TYPE":"U","CENTER_NAME":"EARTH"}];
